NORAD_CAT_ID,OBJECT_NAME,OBJECT_TYPE,EPOCH,MEAN_MOTION,ECCENTRICITY,INCLINATION,RA_OF_ASC_NODE,ARG_OF_PERICENTER,MEAN_ANOMALY,BSTAR,MEAN_MOTION_DOT,MEAN_MOTION_DDOT,TLE_LINE0,TLE_LINE1,TLE_LINE2,SEMIMAJOR_AXIS,PERIOD,APOGEE,PERIGEE,DECAYED
53777.0,STARLINK-4664,PAYLOAD,2024-05-15 08:37:39,15.08849076,0.0001528,53.2181,12.0804,68.5959,291.5196,-0.00041677,-6.916e-05,0.0,0 STARLINK-4664,1 53777U 22111E   24136.35947923 -.00006916  00000-0 -41677-3 0  9996,2 53777  53.2181  12.0804 0001528  68.5959 291.5196 15.08849076 93557,6917.853,95.437,540.775,538.661,0.0
53777.0,STARLINK-4664,PAYLOAD,2024-05-15 21:20:44,15.08841421,0.0001303,53.2174,9.7015,52.9848,307.1263,0.00053475,8.233e-05,0.0,0 STARLINK-4664,1 53777U 22111E   24136.88940207  .00008233  00000-0  53475-3 0  9993,2 53777  53.2174   9.7015 0001303  52.9848 307.1263 15.08841421 92825,6917.876,95.437,540.642,538.84,0.0
53777.0,STARLINK-4664,PAYLOAD,2024-05-16 00:31:30,15.08858035,0.0001425,53.219,9.1083,65.9705,294.1437,0.0015968,0.00025229,0.0,0 STARLINK-4664,1 53777U 22111E   24137.02188151  .00025229  00000-0  15968-2 0  9990,2 53777  53.2190   9.1083 0001425  65.9705 294.1437 15.08858035 92842,6917.825,95.436,540.676,538.704,0.0
53777.0,STARLINK-4664,PAYLOAD,2024-05-16 08:28:26,15.08844313,0.000145,53.2184,7.6182,82.581,277.5347,0.00076276,0.00011874,0.0,0 STARLINK-4664,1 53777U 22111E   24137.35308496  .00011874  00000-0  76276-3 0  9993,2 53777  53.2184   7.6182 0001450  82.5810 277.5347 15.08844313 92892,6917.867,95.437,540.735,538.729,0.0
53777.0,STARLINK-4664,PAYLOAD,2024-05-17 08:19:13,15.08831425,0.0001396,53.2177,3.1609,80.3273,279.7877,-4.7936e-05,-1.051e-05,0.0,0 STARLINK-4664,1 53777U 22111E   24138.34668506 -.00001051  00000-0 -47936-4 0  9994,2 53777  53.2177   3.1609 0001396  80.3273 279.7877 15.08831425 93047,6917.907,95.438,540.737,538.806,0.0
53777.0,STARLINK-4664,PAYLOAD,2024-05-17 22:37:42,15.08825309,0.0001376,53.2177,0.4834,94.5509,265.564,0.00021608,3.151e-05,0.0,0 STARLINK-4664,1 53777U 22111E   24138.94285849  .00003151  00000-0  21608-3 0  9993,2 53777  53.2177   0.4834 0001376  94.5509 265.5640 15.08825309 93948,6917.925,95.438,540.742,538.838,0.0
53777.0,STARLINK-4664,PAYLOAD,2024-05-18 08:10:02,15.08846664,0.0001413,53.218,358.6996,94.6944,265.4209,0.0018373,0.00029079,0.0,0 STARLINK-4664,1 53777U 22111E   24139.34030111  .00029079  00000-0  18373-2 0  9999,2 53777  53.2180 358.6996 0001413  94.6944 265.4209 15.08846664 94000,6917.86,95.437,540.703,538.748,0.0
53777.0,STARLINK-4664,PAYLOAD,2024-05-18 20:53:06,15.0888838,0.0001352,53.2187,356.32,94.6853,265.4293,0.0020475,0.00032492,0.0,0 STARLINK-4664,1 53777U 22111E   24139.87020884  .00032492  00000-0  20475-2 0  9992,2 53777  53.2187 356.3200 0001352  94.6853 265.4293 15.08888380 93273,6917.733,95.434,540.533,538.662,0.0
53777.0,STARLINK-4664,PAYLOAD,2024-05-19 14:22:20,15.0883964,9.49e-05,53.2188,353.0498,91.8353,268.2748,0.00018092,2.593e-05,0.0,0 STARLINK-4664,1 53777U 22111E   24140.59884943  .00002593  00000-0  18092-3 0  9999,2 53777  53.2188 353.0498 0000949  91.8353 268.2748 15.08839640 94195,6917.881,95.438,540.403,539.09,0.0
53777.0,STARLINK-4664,PAYLOAD,2024-05-19 20:43:53,15.08834951,8.96e-05,53.2184,351.86,99.1772,260.9321,0.0013482,0.00021231,0.0,0 STARLINK-4664,1 53777U 22111E   24140.86381358  .00021231  00000-0  13482-2 0  9998,2 53777  53.2184 351.8600 0000896  99.1772 260.9321 15.08834951 93420,6917.896,95.438,540.381,539.141,0.0
53777.0,STARLINK-4664,PAYLOAD,2024-05-20 09:26:58,15.08834448,0.000115,53.2179,349.4808,111.5633,248.5481,0.00064786,0.00010036,0.0,0 STARLINK-4664,1 53777U 22111E   24141.39373778  .00010036  00000-0  64786-3 0  9999,2 53777  53.2179 349.4808 0001150 111.5633 248.5481 15.08834448 93505,6917.897,95.438,540.558,538.967,0.0
53777.0,STARLINK-4664,PAYLOAD,2024-05-20 23:45:26,15.08851341,0.0001252,53.2183,346.8043,114.3088,245.8035,0.00080021,0.00012474,0.0,0 STARLINK-4664,1 53777U 22111E   24141.98989524  .00012474  00000-0  80021-3 0  9994,2 53777  53.2183 346.8043 0001252 114.3088 245.8035 15.08851341 94406,6917.846,95.437,540.577,538.845,0.0
53777.0,STARLINK-4664,PAYLOAD,2024-05-21 18:50:04,15.08840691,0.0001435,53.218,343.2309,124.1205,235.9924,0.00025172,3.721e-05,0.0,0 STARLINK-4664,1 53777U 22111E   24142.78477820  .00003721  00000-0  25172-3 0  9995,2 53777  53.2180 343.2309 0001435 124.1205 235.9924 15.08840691 93718,6917.878,95.438,540.736,538.751,0.0
53777.0,STARLINK-4664,PAYLOAD,2024-05-22 12:19:19,15.08835707,0.000115,53.2171,339.9617,105.8815,254.2304,8.9448e-05,1.136e-05,0.0,0 STARLINK-4664,1 53777U 22111E   24143.51342200  .00001136  00000-0  89448-4 0  9995,2 53777  53.2171 339.9617 0001150 105.8815 254.2304 15.08835707 93829,6917.894,95.438,540.554,538.963,0.0
53777.0,STARLINK-4664,PAYLOAD,2024-05-22 23:27:01,15.08850668,0.000136,53.2182,337.8845,118.3412,241.7717,0.00035483,5.365e-05,0.0,0 STARLINK-4664,1 53777U 22111E   24143.97709567  .00005365  00000-0  35483-3 0  9995,2 53777  53.2182 337.8845 0001360 118.3412 241.7717 15.08850668 93895,6917.848,95.437,540.654,538.772,0.0
53777.0,STARLINK-4664,PAYLOAD,2024-05-23 20:07:00,15.0887666,0.0001094,53.2168,334.0189,128.6721,231.4369,0.00066413,0.00010308,0.0,0 STARLINK-4664,1 53777U 22111E   24144.83819742  .00010308  00000-0  66413-3 0  9998,2 53777  53.2168 334.0189 0001094 128.6721 231.4369 15.08876660 94025,6917.768,95.435,540.39,538.877,0.0
53777.0,STARLINK-4664,PAYLOAD,2024-05-24 19:57:47,15.08815182,0.0001025,53.2163,329.5577,113.0976,247.0124,-0.00087481,-0.00014174,0.0,0 STARLINK-4664,1 53777U 22111E   24145.83180003 -.00014174  00000-0 -87481-3 0  9995,2 53777  53.2163 329.5577 0001025 113.0976 247.0124 15.08815182 94174,6917.956,95.439,540.53,539.112,0.0
53777.0,STARLINK-4664,PAYLOAD,2024-05-24 21:33:10,15.08810621,0.0001015,53.2165,329.2607,96.1872,263.9236,-0.00073139,-0.00011899,0.0,0 STARLINK-4664,1 53777U 22111E   24145.89804329 -.00011899  00000-0 -73139-3 0  9991,2 53777  53.2165 329.2607 0001015  96.1872 263.9236 15.08810621 94996,6917.97,95.439,540.537,539.133,0.0
53777.0,STARLINK-4664,PAYLOAD,2024-05-25 11:51:40,15.0880252,0.0001004,53.2164,326.5855,96.4782,263.6324,0.00030942,4.635e-05,0.0,0 STARLINK-4664,1 53777U 22111E   24146.49422182  .00004635  00000-0  30942-3 0  9994,2 53777  53.2164 326.5855 0001004  96.4782 263.6324 15.08802520 95086,6917.995,95.44,540.555,539.165,0.0
53777.0,STARLINK-4664,PAYLOAD,2024-05-25 18:13:13,15.08818432,9.77e-05,53.2164,325.3965,94.9121,265.1982,0.0004923,7.551e-05,0.0,0 STARLINK-4664,1 53777U 22111E   24146.75918295  .00007551  00000-0  49230-3 0  9998,2 53777  53.2164 325.3965 0000977  94.9121 265.1982 15.08818432 94314,6917.946,95.439,540.487,539.135,0.0
53777.0,STARLINK-4664,PAYLOAD,2024-05-26 05:20:55,15.08828279,0.0001193,53.2169,323.3162,83.6882,276.4246,0.00072358,0.00011243,0.0,0 STARLINK-4664,1 53777U 22111E   24147.22286972  .00011243  00000-0  72358-3 0  9991,2 53777  53.2169 323.3162 0001193  83.6882 276.4246 15.08828279 95191,6917.916,95.438,540.607,538.956,0.0
53777.0,STARLINK-4664,PAYLOAD,2024-05-26 21:14:47,15.0884966,0.0001256,53.2173,320.3415,87.6154,272.4982,0.00086978,0.00013585,0.0,0 STARLINK-4664,1 53777U 22111E   24147.88526927  .00013585  00000-0  86978-3 0  9994,2 53777  53.2173 320.3415 0001256  87.6154 272.4982 15.08849660 94481,6917.851,95.437,540.585,538.847,0.0
53777.0,STARLINK-4664,PAYLOAD,2024-05-27 11:33:15,15.08845001,0.000111,53.2179,317.6655,80.5532,279.5586,0.00040012,6.087e-05,0.0,0 STARLINK-4664,1 53777U 22111E   24148.48142994  .00006087  00000-0  40012-3 0  9997,2 53777  53.2179 317.6655 0001110  80.5532 279.5586 15.08845001 94576,6917.865,95.437,540.498,538.962,0.0
53777.0,STARLINK-4664,PAYLOAD,2024-05-27 14:44:01,15.08846694,0.0001249,53.2173,317.0666,97.4917,262.6217,0.00039163,5.952e-05,0.0,0 STARLINK-4664,1 53777U 22111E   24148.61390837  .00005952  00000-0  39163-3 0  9998,2 53777  53.2173 317.0666 0001249  97.4917 262.6217 15.08846694 95409,6917.86,95.437,540.589,538.861,0.0
53777.0,STARLINK-4664,PAYLOAD,2024-05-27 17:54:47,15.08846635,0.0001242,53.2172,316.4729,100.939,259.1742,0.00033123,4.988e-05,0.0,0 STARLINK-4664,1 53777U 22111E   24148.74638778  .00004988  00000-0  33123-3 0  9999,2 53777  53.2172 316.4729 0001242 100.9390 259.1742 15.08846635 95420,6917.86,95.437,540.584,538.866,0.0
53777.0,STARLINK-4664,PAYLOAD,2024-05-28 14:34:48,15.08846211,0.0001322,53.2168,312.6067,112.246,247.8673,0.00016443,2.33e-05,0.0,0 STARLINK-4664,1 53777U 22111E   24149.60750509  .00002330  00000-0  16443-3 0  9997,2 53777  53.2168 312.6067 0001322 112.2460 247.8673 15.08846211 95552,6917.861,95.437,540.641,538.812,0.0
53777.0,STARLINK-4664,PAYLOAD,2024-05-28 17:45:34,15.08849105,0.0001141,53.2181,312.0194,81.8452,278.2669,0.0001915,2.762e-05,0.0,0 STARLINK-4664,1 53777U 22111E   24149.73998527  .00002762  00000-0  19150-3 0  9992,2 53777  53.2181 312.0194 0001141  81.8452 278.2669 15.08849105 94763,6917.853,95.437,540.507,538.928,0.0
53777.0,STARLINK-4664,PAYLOAD,2024-05-29 12:50:12,15.08838782,0.0001168,53.2178,308.448,92.5129,267.5997,-3.2395e-06,-3.39e-06,0.0,0 STARLINK-4664,1 53777U 22111E   24150.53486788 -.00000339  00000-0 -32395-5 0  9991,2 53777  53.2178 308.4480 0001168  92.5129 267.5997 15.08838782 94882,6917.884,95.438,540.557,538.941,0.0
53777.0,STARLINK-4664,PAYLOAD,2024-05-29 14:25:35,15.08838355,0.000119,53.2176,308.1504,100.1084,260.0042,2.104e-06,-2.54e-06,0.0,0 STARLINK-4664,1 53777U 22111E   24150.60110797 -.00000254  00000-0  21040-5 0  9993,2 53777  53.2176 308.1504 0001190 100.1084 260.0042 15.08838355 95702,6917.885,95.438,540.574,538.927,0.0
53777.0,STARLINK-4664,PAYLOAD,2024-05-29 22:22:31,15.08839012,0.0001194,53.2179,306.6634,104.9416,255.1708,5.5137e-05,5.9e-06,0.0,0 STARLINK-4664,1 53777U 22111E   24150.93231129  .00000590  00000-0  55137-4 0  9997,2 53777  53.2179 306.6634 0001194 104.9416 255.1708 15.08839012 95757,6917.883,95.438,540.574,538.922,0.0
